NORAD_CAT_ID,OBJECT_NAME,OBJECT_TYPE,EPOCH,MEAN_MOTION,ECCENTRICITY,INCLINATION,RA_OF_ASC_NODE,ARG_OF_PERICENTER,MEAN_ANOMALY,BSTAR,MEAN_MOTION_DOT,MEAN_MOTION_DDOT,TLE_LINE0,TLE_LINE1,TLE_LINE2,SEMIMAJOR_AXIS,PERIOD,APOGEE,PERIGEE,DECAYED
51975.0,STARLINK-3674,PAYLOAD,2023-09-26 12:47:17,15.04759552,0.0001538,53.056,85.1837,91.1129,269.0035,-3.4095e-05,-7.63e-06,0.0,0 STARLINK-3674,1 51975U 22025V   23269.53283978 -.00000763  00000-0 -34095-4 0  9998,2 51975  53.0560  85.1837 0001538  91.1129 269.0035 15.04759552 87171,6930.381,95.696,553.312,551.18,0.0
51975.0,STARLINK-3674,PAYLOAD,2023-09-26 20:45:30,15.0476193,0.0001475,53.0538,83.6944,84.4211,275.6945,5.6881e-05,5.34e-06,0.0,0 STARLINK-3674,1 51975U 22025V   23269.86493471  .00000534  00000-0  56881-4 0  9996,2 51975  53.0538  83.6944 0001475  84.4211 275.6945 15.04761930 86114,6930.374,95.696,553.261,551.216,0.0
51975.0,STARLINK-3674,PAYLOAD,2023-09-27 11:06:17,15.04768456,0.0001489,53.0537,81.0175,88.6773,271.4386,0.00023589,3.087e-05,0.0,0 STARLINK-3674,1 51975U 22025V   23270.46270362  .00003087  00000-0  23589-3 0  9990,2 51975  53.0537  81.0175 0001489  88.6773 271.4386 15.04768456 86208,6930.354,95.696,553.25,551.187,0.0
51975.0,STARLINK-3674,PAYLOAD,2023-09-27 19:04:30,15.04775686,0.000149,53.0536,79.5306,85.4699,274.646,0.00047214,6.461e-05,0.0,0 STARLINK-3674,1 51975U 22025V   23270.79479586  .00006461  00000-0  47214-3 0  9995,2 51975  53.0536  79.5306 0001490  85.4699 274.6460 15.04775686 87368,6930.331,95.695,553.229,551.164,0.0
51975.0,STARLINK-3674,PAYLOAD,2023-09-28 11:00:56,15.04773796,0.0001411,53.0531,76.5577,85.5857,274.5292,0.00028552,3.796e-05,0.0,0 STARLINK-3674,1 51975U 22025V   23271.45898315  .00003796  00000-0  28552-3 0  9996,2 51975  53.0531  76.5577 0001411  85.5857 274.5292 15.04773796 87463,6930.337,95.695,553.18,551.224,0.0
51975.0,STARLINK-3674,PAYLOAD,2023-09-28 17:23:30,15.04775326,0.0001396,53.0533,75.3678,85.1875,274.9273,0.00026554,3.511e-05,0.0,0 STARLINK-3674,1 51975U 22025V   23271.72465704  .00003511  00000-0  26554-3 0  9993,2 51975  53.0533  75.3678 0001396  85.1875 274.9273 15.04775326 86397,6930.332,95.695,553.165,551.23,0.0
51975.0,STARLINK-3674,PAYLOAD,2023-09-29 10:55:34,15.04772091,0.00015,53.0544,72.0971,83.865,276.2509,0.00011212,1.322e-05,0.0,0 STARLINK-3674,1 51975U 22025V   23272.45526310  .00001322  00000-0  11212-3 0  9998,2 51975  53.0544  72.0971 0001500  83.8650 276.2509 15.04772091 87611,6930.342,95.696,553.247,551.168,0.0
51975.0,STARLINK-3674,PAYLOAD,2023-09-29 15:42:30,15.0477354,0.0001482,53.0547,71.205,84.4032,275.7125,0.00012029,1.438e-05,0.0,0 STARLINK-3674,1 51975U 22025V   23272.65451850  .00001438  00000-0  12029-3 0  9991,2 51975  53.0547  71.2050 0001482  84.4032 275.7125 15.04773540 86531,6930.338,95.695,553.23,551.176,0.0
51975.0,STARLINK-3674,PAYLOAD,2023-09-30 17:12:47,15.0477077,0.0001376,53.054,66.445,82.825,277.2895,6.8761e-05,7.03e-06,0.0,0 STARLINK-3674,1 51975U 22025V   23273.71721859  .00000703  00000-0  68761-4 0  9997,2 51975  53.0540  66.4450 0001376  82.8250 277.2895 15.04770770 87804,6930.346,95.696,553.165,551.258,0.0
51975.0,STARLINK-3674,PAYLOAD,2023-10-01 02:46:37,15.04787333,0.0001322,53.0558,64.6591,96.1868,263.9271,0.0001921,2.464e-05,0.0,0 STARLINK-3674,1 51975U 22025V   23274.11571678  .00002464  00000-0  19210-3 0  9994,2 51975  53.0558  64.6591 0001322  96.1868 263.9271 15.04787333 87862,6930.296,95.695,553.077,551.244,0.0
51975.0,STARLINK-3674,PAYLOAD,2023-10-01 10:44:51,15.04784302,0.0001484,53.0554,63.1709,90.9395,269.1764,0.00022353,2.912e-05,0.0,0 STARLINK-3674,1 51975U 22025V   23274.44781272  .00002912  00000-0  22353-3 0  9993,2 51975  53.0554  63.1709 0001484  90.9395 269.1764 15.04784302 87913,6930.305,95.695,553.198,551.141,0.0
51975.0,STARLINK-3674,PAYLOAD,2023-10-01 13:56:08,15.04786503,0.0001493,53.0546,62.5776,86.4665,273.6494,0.00029198,3.89e-05,0.0,0 STARLINK-3674,1 51975U 22025V   23274.58064867  .00003890  00000-0  29198-3 0  9992,2 51975  53.0546  62.5776 0001493  86.4665 273.6494 15.04786503 86825,6930.298,95.695,553.198,551.128,0.0
51975.0,STARLINK-3674,PAYLOAD,2023-10-01 17:07:24,15.04792858,0.000146,53.0542,61.9847,83.974,276.1415,0.00037995,5.147e-05,0.0,0 STARLINK-3674,1 51975U 22025V   23274.71348154  .00005147  00000-0  37995-3 0  9992,2 51975  53.0542  61.9847 0001460  83.9740 276.1415 15.04792858 86846,6930.279,95.694,553.155,551.132,0.0
51975.0,STARLINK-3674,PAYLOAD,2023-10-02 02:41:16,15.04778645,0.0001556,53.0555,60.1973,71.1168,288.9989,0.00014922,1.851e-05,0.0,0 STARLINK-3674,1 51975U 22025V   23275.11199853  .00001851  00000-0  14922-3 0  9990,2 51975  53.0555  60.1973 0001556  71.1168 288.9989 15.04778645 88016,6930.322,95.695,553.266,551.109,0.0
51975.0,STARLINK-3674,PAYLOAD,2023-10-02 10:39:30,15.04748443,0.0001511,53.0552,58.7109,74.2319,285.8836,-0.00057029,-8.393e-05,0.0,0 STARLINK-3674,1 51975U 22025V   23275.44410347 -.00008393  00000-0 -57029-3 0  9995,2 51975  53.0552  58.7109 0001511  74.2319 285.8836 15.04748443 88065,6930.415,95.697,553.327,551.233,0.0
51975.0,STARLINK-3674,PAYLOAD,2023-10-02 15:26:26,15.04752093,0.0001455,53.0552,57.819,76.6318,283.4832,-0.00042415,-6.316e-05,0.0,0 STARLINK-3674,1 51975U 22025V   23275.64336010 -.00006316  00000-0 -42415-3 0  9997,2 51975  53.0552  57.8190 0001455  76.6318 283.4832 15.04752093 86982,6930.404,95.697,553.277,551.26,0.0
51975.0,STARLINK-3674,PAYLOAD,2023-10-03 02:35:56,15.04757805,0.0001438,53.0553,55.7383,74.2741,285.8405,-6.2892e-05,-1.173e-05,0.0,0 STARLINK-3674,1 51975U 22025V   23276.10829278 -.00001173  00000-0 -62892-4 0  9990,2 51975  53.0553  55.7383 0001438  74.2741 285.8405 15.04757805 88169,6930.386,95.696,553.248,551.255,0.0
51975.0,STARLINK-3674,PAYLOAD,2023-10-03 15:21:05,15.04773093,0.0001344,53.0549,53.3592,66.8124,293.3006,0.0015473,0.00021852,0.0,0 STARLINK-3674,1 51975U 22025V   23276.63964881  .00021852  00000-0  15473-2 0  9993,2 51975  53.0549  53.3592 0001344  66.8124 293.3006 15.04773093 87132,6930.339,95.695,553.136,551.273,0.0
51975.0,STARLINK-3674,PAYLOAD,2023-10-03 16:56:44,15.047763,0.0001364,53.055,53.0619,66.062,294.0511,0.0015768,0.00022277,0.0,0 STARLINK-3674,1 51975U 22025V   23276.70606717  .00022277  00000-0  15768-2 0  9991,2 51975  53.0550  53.0619 0001364  66.0620 294.0511 15.04776300 88253,6930.329,95.695,553.14,551.249,0.0
51975.0,STARLINK-3674,PAYLOAD,2023-10-04 08:53:10,15.04781541,0.0001614,53.0565,50.0884,64.2696,295.8459,0.0012853,0.00018099,0.0,0 STARLINK-3674,1 51975U 22025V   23277.37025582  .00018099  00000-0  12853-2 0  9999,2 51975  53.0565  50.0884 0001614  64.2696 295.8459 15.04781541 88355,6930.313,95.695,553.297,551.06,0.0
51975.0,STARLINK-3674,PAYLOAD,2023-10-04 13:40:05,15.04789678,0.0001469,53.0567,49.1961,67.7866,292.3278,0.0011869,0.00016693,0.0,0 STARLINK-3674,1 51975U 22025V   23277.56950901  .00016693  00000-0  11869-2 0  9996,2 51975  53.0567  49.1961 0001469  67.7866 292.3278 15.04789678 87277,6930.288,95.694,553.171,551.135,0.0
51975.0,STARLINK-3674,PAYLOAD,2023-10-04 18:27:01,15.04798726,0.0001332,53.0555,48.3034,69.8974,290.2157,0.0017364,0.00024583,0.0,0 STARLINK-3674,1 51975U 22025V   23277.76876161  .00024583  00000-0  17364-2 0  9996,2 51975  53.0555  48.3034 0001332  69.8974 290.2157 15.04798726 87309,6930.261,95.694,553.049,551.202,0.0
51975.0,STARLINK-3674,PAYLOAD,2023-10-05 02:25:14,15.04776505,0.0001264,53.0558,46.8166,74.8806,285.2322,0.0011365,0.00015965,0.0,0 STARLINK-3674,1 51975U 22025V   23278.10085691  .00015965  00000-0  11365-2 0  9994,2 51975  53.0558  46.8166 0001264  74.8806 285.2322 15.04776505 88462,6930.329,95.695,553.07,551.318,0.0
51975.0,STARLINK-3674,PAYLOAD,2023-10-05 13:34:44,15.04772304,0.0001528,53.0546,44.7331,106.3514,253.7642,0.0010666,0.00014962,0.0,0 STARLINK-3674,1 51975U 22025V   23278.56578982  .00014962  00000-0  10666-2 0  9993,2 51975  53.0546  44.7331 0001528 106.3514 253.7642 15.04772304 87423,6930.342,95.696,553.266,551.148,0.0
51975.0,STARLINK-3674,PAYLOAD,2023-10-05 15:10:22,15.04780446,0.0001512,53.055,44.4364,82.2564,277.8596,0.0010363,0.00014531,0.0,0 STARLINK-3674,1 51975U 22025V   23278.63220831  .00014531  00000-0  10363-2 0  9994,2 51975  53.0550  44.4364 0001512  82.2564 277.8596 15.04780446 88546,6930.317,95.695,553.23,551.134,0.0
51975.0,STARLINK-3674,PAYLOAD,2023-10-06 08:42:27,15.04775894,0.0001609,53.0554,41.165,76.1613,283.9555,0.0017697,0.00025046,0.0,0 STARLINK-3674,1 51975U 22025V   23279.36282266  .00025046  00000-0  17697-2 0  9995,2 51975  53.0554  41.1650 0001609  76.1613 283.9555 15.04775894 88652,6930.331,95.695,553.311,551.081,0.0
51975.0,STARLINK-3674,PAYLOAD,2023-10-06 13:29:23,15.04765473,0.000145,53.0558,40.273,102.5535,257.5616,0.0017288,0.00024452,0.0,0 STARLINK-3674,1 51975U 22025V   23279.56207861  .00024452  00000-0  17288-2 0  9991,2 51975  53.0558  40.2730 0001450 102.5535 257.5616 15.04765473 87573,6930.363,95.696,553.233,551.223,0.0
51975.0,STARLINK-3674,PAYLOAD,2023-10-06 15:05:02,15.0476808,0.0001311,53.0557,39.9761,88.0652,272.0487,0.0021192,0.00030062,0.0,0 STARLINK-3674,1 51975U 22025V   23279.62849817  .00030062  00000-0  21192-2 0  9994,2 51975  53.0557  39.9761 0001311  88.0652 272.0487 15.04768080 88694,6930.355,95.696,553.128,551.311,0.0
51975.0,STARLINK-3674,PAYLOAD,2023-10-07 00:38:53,15.04770644,0.0001299,53.0549,38.1907,87.139,272.9747,0.001124,0.00015783,0.0,0 STARLINK-3674,1 51975U 22025V   23280.02701187  .00015783  00000-0  11240-2 0  9993,2 51975  53.0549  38.1907 0001299  87.1390 272.9747 15.04770644 88756,6930.347,95.696,553.112,551.312,0.0
51975.0,STARLINK-3674,PAYLOAD,2023-10-07 08:37:06,15.04767815,0.0001361,53.0545,36.7046,91.6489,268.4655,0.00047001,6.429e-05,0.0,0 STARLINK-3674,1 51975U 22025V   23280.35910653  .00006429  00000-0  47001-3 0  9991,2 51975  53.0545  36.7046 0001361  91.6489 268.4655 15.04767815 88809,6930.355,95.696,553.164,551.277,0.0
